STARLINK-31744          
1 59494U 24071L   26067.22915303  .00001769  00000+0  73732-4 0  9999
2 59494  43.0052 355.6563 0001065 283.7136  76.3597 15.27607308107893
TEVEL2-7                
1 63238U 25052AE  26068.66113295  .00019244  00000+0  69668-3 0  9998
2 63238  97.4054 324.3041 0008105 124.6830 235.5175 15.28414096 54803
